STARLINK-2390
1 17809C 21018Y   21326.18993911 -.00020910  00000-0 -14011-2 0  3262
2 17809  53.0542  92.8774 0001451  82.1641 218.3006 15.06415317    13
